CCSDS_OMM_VERS = 2.0
CREATION_DATE  = 
ORIGINATOR     = 

OBJECT_NAME    = CZ-11H R/B
OBJECT_ID      = 2025-255D
CENTER_NAME    = EARTH
REF_FRAME      = TEME
TIME_SYSTEM    = UTC
MEAN_ELEMENT_THEORY = SGP/SGP4

EPOCH          = 2025-11-17T20:45:58.965120
MEAN_MOTION    = 15.41917379
ECCENTRICITY   = .0015034
INCLINATION    = 52.9977
RA_OF_ASC_NODE = 296.1752
ARG_OF_PERICENTER = 324.1390
MEAN_ANOMALY   = 35.8604

EPHEMERIS_TYPE = 0
CLASSIFICATION_TYPE = U
NORAD_CAT_ID   = 66379
ELEMENT_SET_NO = 999
REV_AT_EPOCH   = 139
BSTAR          = .48728E-3
MEAN_MOTION_DOT = .20756E-3
MEAN_MOTION_DDOT = 0

CCSDS_OMM_VERS = 2.0
CREATION_DATE  = 
ORIGINATOR     = 

OBJECT_NAME    = CHUTIAN-2 A
OBJECT_ID      = 2025-256A
CENTER_NAME    = EARTH
REF_FRAME      = TEME
TIME_SYSTEM    = UTC
MEAN_ELEMENT_THEORY = SGP/SGP4

EPOCH          = 2025-11-17T21:11:21.331392
MEAN_MOTION    = 14.50674959
ECCENTRICITY   = .0012456
INCLINATION    = 98.2804
RA_OF_ASC_NODE = 27.0803
ARG_OF_PERICENTER = 257.0833
MEAN_ANOMALY   = 102.8971

EPHEMERIS_TYPE = 0
CLASSIFICATION_TYPE = U
NORAD_CAT_ID   = 66409
ELEMENT_SET_NO = 999
REV_AT_EPOCH   = 127
BSTAR          = .33015E-4
MEAN_MOTION_DOT = .85E-6
MEAN_MOTION_DDOT = 0

CCSDS_OMM_VERS = 2.0
CREATION_DATE  = 
ORIGINATOR     = 

OBJECT_NAME    = CHUTIAN-2 B
OBJECT_ID      = 2025-256B
CENTER_NAME    = EARTH
REF_FRAME      = TEME
TIME_SYSTEM    = UTC
MEAN_ELEMENT_THEORY = SGP/SGP4

EPOCH          = 2025-11-17T21:10:08.732064
MEAN_MOTION    = 14.50976946
ECCENTRICITY   = .0012681
INCLINATION    = 98.2824
RA_OF_ASC_NODE = 27.0841
ARG_OF_PERICENTER = 261.3505
MEAN_ANOMALY   = 98.6253

EPHEMERIS_TYPE = 0
CLASSIFICATION_TYPE = U
NORAD_CAT_ID   = 66410
ELEMENT_SET_NO = 999
REV_AT_EPOCH   = 127
BSTAR          = .27667E-3
MEAN_MOTION_DOT = .105E-4
MEAN_MOTION_DDOT = 0

CCSDS_OMM_VERS = 2.0
CREATION_DATE  = 
ORIGINATOR     = 

OBJECT_NAME    = ZK-1A R/B
OBJECT_ID      = 2025-256C
CENTER_NAME    = EARTH
REF_FRAME      = TEME
TIME_SYSTEM    = UTC
MEAN_ELEMENT_THEORY = SGP/SGP4

EPOCH          = 2025-11-17T20:35:27.299904
MEAN_MOTION    = 15.01157956
ECCENTRICITY   = .0233079
INCLINATION    = 98.3258
RA_OF_ASC_NODE = 27.8305
ARG_OF_PERICENTER = 327.9167
MEAN_ANOMALY   = 30.8043

EPHEMERIS_TYPE = 0
CLASSIFICATION_TYPE = U
NORAD_CAT_ID   = 66411
ELEMENT_SET_NO = 999
REV_AT_EPOCH   = 131
BSTAR          = .13975E-3
MEAN_MOTION_DOT = .3122E-4
MEAN_MOTION_DDOT = 0

CCSDS_OMM_VERS = 2.0
CREATION_DATE  = 
ORIGINATOR     = 

OBJECT_NAME    = HULIANWANG DIGUI 13A
OBJECT_ID      = 2025-258A
CENTER_NAME    = EARTH
REF_FRAME      = TEME
TIME_SYSTEM    = UTC
MEAN_ELEMENT_THEORY = SGP/SGP4

EPOCH          = 2025-11-13T17:32:00.562848
MEAN_MOTION    = 14.25865331
ECCENTRICITY   = .00138813
INCLINATION    = 50.0047
RA_OF_ASC_NODE = 24.1929
ARG_OF_PERICENTER = 257.7847
MEAN_ANOMALY   = 102.1513

EPHEMERIS_TYPE = 0
CLASSIFICATION_TYPE = U
NORAD_CAT_ID   = 66412
ELEMENT_SET_NO = 999
REV_AT_EPOCH   = 52
BSTAR          = .8395556E-4
MEAN_MOTION_DOT = .41E-6
MEAN_MOTION_DDOT = 0

CCSDS_OMM_VERS = 2.0
CREATION_DATE  = 
ORIGINATOR     = 

OBJECT_NAME    = HULIANWANG DIGUI 13B
OBJECT_ID      = 2025-258B
CENTER_NAME    = EARTH
REF_FRAME      = TEME
TIME_SYSTEM    = UTC
MEAN_ELEMENT_THEORY = SGP/SGP4

EPOCH          = 2025-11-16T09:26:13.870176
MEAN_MOTION    = 14.25999228
ECCENTRICITY   = .00131848
INCLINATION    = 50.0051
RA_OF_ASC_NODE = 12.9380
ARG_OF_PERICENTER = 265.6853
MEAN_ANOMALY   = 94.2554

EPHEMERIS_TYPE = 0
CLASSIFICATION_TYPE = U
NORAD_CAT_ID   = 66413
ELEMENT_SET_NO = 999
REV_AT_EPOCH   = 90
BSTAR          = .11719269E-3
MEAN_MOTION_DOT = .122E-5
MEAN_MOTION_DDOT = 0

CCSDS_OMM_VERS = 2.0
CREATION_DATE  = 
ORIGINATOR     = 

OBJECT_NAME    = HULIANWANG DIGUI 13C
OBJECT_ID      = 2025-258C
CENTER_NAME    = EARTH
REF_FRAME      = TEME
TIME_SYSTEM    = UTC
MEAN_ELEMENT_THEORY = SGP/SGP4

EPOCH          = 2025-11-15T03:09:47.920896
MEAN_MOTION    = 14.25997524
ECCENTRICITY   = .00132413
INCLINATION    = 50.0035
RA_OF_ASC_NODE = 18.2644
ARG_OF_PERICENTER = 262.4619
MEAN_ANOMALY   = 97.4791

EPHEMERIS_TYPE = 0
CLASSIFICATION_TYPE = U
NORAD_CAT_ID   = 66414
ELEMENT_SET_NO = 999
REV_AT_EPOCH   = 72
BSTAR          = .12666911E-3
MEAN_MOTION_DOT = .144E-5
MEAN_MOTION_DDOT = 0

CCSDS_OMM_VERS = 2.0
CREATION_DATE  = 
ORIGINATOR     = 

OBJECT_NAME    = HULIANWANG DIGUI 13D
OBJECT_ID      = 2025-258D
CENTER_NAME    = EARTH
REF_FRAME      = TEME
TIME_SYSTEM    = UTC
MEAN_ELEMENT_THEORY = SGP/SGP4

EPOCH          = 2025-11-13T10:47:41.172576
MEAN_MOTION    = 14.26053887
ECCENTRICITY   = .00131512
INCLINATION    = 50.0051
RA_OF_ASC_NODE = 25.3748
ARG_OF_PERICENTER = 262.1731
MEAN_ANOMALY   = 97.7690

EPHEMERIS_TYPE = 0
CLASSIFICATION_TYPE = U
NORAD_CAT_ID   = 66415
ELEMENT_SET_NO = 999
REV_AT_EPOCH   = 48
BSTAR          = .12022655E-3
MEAN_MOTION_DOT = .129E-5
MEAN_MOTION_DDOT = 0

CCSDS_OMM_VERS = 2.0
CREATION_DATE  = 
ORIGINATOR     = 

OBJECT_NAME    = HULIANWANG DIGUI 13E
OBJECT_ID      = 2025-258E
CENTER_NAME    = EARTH
REF_FRAME      = TEME
TIME_SYSTEM    = UTC
MEAN_ELEMENT_THEORY = SGP/SGP4

EPOCH          = 2025-11-15T08:11:33.160992
MEAN_MOTION    = 14.26185204
ECCENTRICITY   = .00124554
INCLINATION    = 50.0061
RA_OF_ASC_NODE = 17.3799
ARG_OF_PERICENTER = 268.0844
MEAN_ANOMALY   = 91.8644

EPHEMERIS_TYPE = 0
CLASSIFICATION_TYPE = U
NORAD_CAT_ID   = 66416
ELEMENT_SET_NO = 999
REV_AT_EPOCH   = 75
BSTAR          = .12439475E-3
MEAN_MOTION_DOT = .14E-5
MEAN_MOTION_DDOT = 0

CCSDS_OMM_VERS = 2.0
CREATION_DATE  = 
ORIGINATOR     = 

OBJECT_NAME    = HULIANWANG DIGUI 13F
OBJECT_ID      = 2025-258F
CENTER_NAME    = EARTH
REF_FRAME      = TEME
TIME_SYSTEM    = UTC
MEAN_ELEMENT_THEORY = SGP/SGP4

EPOCH          = 2025-11-12T14:36:19.283328
MEAN_MOTION    = 14.26237817
ECCENTRICITY   = .00120583
INCLINATION    = 50.0012
RA_OF_ASC_NODE = 28.9164
ARG_OF_PERICENTER = 253.6622
MEAN_ANOMALY   = 106.2967

EPHEMERIS_TYPE = 0
CLASSIFICATION_TYPE = U
NORAD_CAT_ID   = 66417
ELEMENT_SET_NO = 999
REV_AT_EPOCH   = 36
BSTAR          = .1083286E-3
MEAN_MOTION_DOT = .101E-5
MEAN_MOTION_DDOT = 0

CCSDS_OMM_VERS = 2.0
CREATION_DATE  = 
ORIGINATOR     = 

OBJECT_NAME    = HULIANWANG DIGUI 13G
OBJECT_ID      = 2025-258G
CENTER_NAME    = EARTH
REF_FRAME      = TEME
TIME_SYSTEM    = UTC
MEAN_ELEMENT_THEORY = SGP/SGP4

EPOCH          = 2025-11-13T17:30:40.387104
MEAN_MOTION    = 14.26232788
ECCENTRICITY   = .00123816
INCLINATION    = 50.0008
RA_OF_ASC_NODE = 24.1756
ARG_OF_PERICENTER = 260.9439
MEAN_ANOMALY   = 99.0074

EPHEMERIS_TYPE = 0
CLASSIFICATION_TYPE = U
NORAD_CAT_ID   = 66418
ELEMENT_SET_NO = 999
REV_AT_EPOCH   = 52
BSTAR          = .13659578E-3
MEAN_MOTION_DOT = .17E-5
MEAN_MOTION_DDOT = 0

CCSDS_OMM_VERS = 2.0
CREATION_DATE  = 
ORIGINATOR     = 

OBJECT_NAME    = HULIANWANG DIGUI 13H
OBJECT_ID      = 2025-258H
CENTER_NAME    = EARTH
REF_FRAME      = TEME
TIME_SYSTEM    = UTC
MEAN_ELEMENT_THEORY = SGP/SGP4

EPOCH          = 2025-11-14T11:59:51.258048
MEAN_MOTION    = 14.26388412
ECCENTRICITY   = .00114678
INCLINATION    = 50.0011
RA_OF_ASC_NODE = 20.9157
ARG_OF_PERICENTER = 262.6507
MEAN_ANOMALY   = 97.3104

EPHEMERIS_TYPE = 0
CLASSIFICATION_TYPE = U
NORAD_CAT_ID   = 66419
ELEMENT_SET_NO = 999
REV_AT_EPOCH   = 63
BSTAR          = .12261674E-3
MEAN_MOTION_DOT = .137E-5
MEAN_MOTION_DDOT = 0

